[{"OBJECT_NAME":"STARLINK-3324","OBJECT_ID":"2022-001M","EPOCH":"2026-03-09T13:46:28.333056","MEAN_MOTION":15.08829863,"ECCENTRICITY":0.0001018,"INCLINATION":53.217,"RA_OF_ASC_NODE":169.6439,"ARG_OF_PERICENTER":91.8443,"MEAN_ANOMALY":268.2665,"EPHEMERIS_TYPE":0,"CLASSIFICATION_TYPE":"U","NORAD_CAT_ID":50814,"ELEMENT_SET_NO":999,"REV_AT_EPOCH":23039,"BSTAR":-8.6429e-5,"MEAN_MOTION_DOT":-1.663e-5,"MEAN_MOTION_DDOT":0},{"OBJECT_NAME":"IRIDIUM 33 DEB","OBJECT_ID":"1997-051ACD","EPOCH":"2026-02-15T04:06:14.442336","MEAN_MOTION":15.0282309,"ECCENTRICITY":0.00183243,"INCLINATION":86.3384,"RA_OF_ASC_NODE":302.6959,"ARG_OF_PERICENTER":121.5358,"MEAN_ANOMALY":29.3036,"EPHEMERIS_TYPE":0,"CLASSIFICATION_TYPE":"U","NORAD_CAT_ID":46971,"ELEMENT_SET_NO":999,"REV_AT_EPOCH":65196,"BSTAR":0.0024316654,"MEAN_MOTION_DOT":0.00032805,"MEAN_MOTION_DDOT":0}]
